     2.10           NAVIGATION DATA     GPS(GPS)            RINEX VERSION / TYPE
cnvtToRINEX 3.07.0  convertToRINEX OPR  19-May-20 12:31 UTC PGM / RUN BY / DATE 
----------------------------------------------------------- COMMENT             
    0.7451D-08  0.2235D-07 -0.5960D-07 -0.1192D-06          ION ALPHA           
    0.8602D+05  0.8192D+05 -0.1311D+06 -0.5243D+06          ION BETA            
   -0.279396772385D-08-0.266453525910D-14   147456     2105 DELTA-UTC: A0,A1,T,W
    18                                                      LEAP SECONDS        
                                                            END OF HEADER       
 1 20 05 16 04 00  0.0-0.380511861295D-03-0.636646291241D-11 0.000000000000D+00
    0.700000000000D+01 0.140312500000D+02 0.430875090534D-08-0.778279571840D+00
    0.972300767899D-06 0.984689639881D-02 0.527873635292D-05 0.515362411880D+04
    0.532800000000D+06 0.150874257088D-06-0.296075348663D+01 0.111758708954D-06
    0.980324061129D+00 0.288593750000D+03 0.775668369861D+00-0.812855287257D-08
    0.328585115460D-09 0.100000000000D+01 0.210500000000D+04 0.000000000000D+00
    0.240000000000D+01 0.000000000000D+00 0.512227416039D-08 0.700000000000D+01
    0.527448000000D+06 0.400000000000D+01 0.000000000000D+00 0.000000000000D+00
 7 20 05 16 04 00  0.0-0.282105524093D-03-0.864019966684D-11 0.000000000000D+00
    0.780000000000D+02 0.487812500000D+02 0.473305429357D-08-0.153592526934D+01
    0.243075191975D-05 0.137957758270D-01 0.660493969917D-05 0.515366300011D+04
    0.532800000000D+06 0.288709998131D-06 0.184860310368D+00-0.178813934326D-06
    0.953628721778D+00 0.247062500000D+03-0.239924870762D+01-0.800997650482D-08
    0.950039572962D-10 0.100000000000D+01 0.210500000000D+04 0.000000000000D+00
    0.240000000000D+01 0.000000000000D+00-0.111758708954D-07 0.780000000000D+02
    0.525798000000D+06 0.400000000000D+01 0.000000000000D+00 0.000000000000D+00
 8 20 05 16 04 00  0.0-0.341474078596D-04-0.136424205266D-11 0.000000000000D+00
    0.630000000000D+02 0.162500000000D+02 0.407624122038D-08 0.149406104507D+01
    0.847503542900D-06 0.534945225809D-02 0.853277742863D-05 0.515366958809D+04
    0.532800000000D+06-0.223517417908D-07 0.225295400019D+01 0.707805156708D-07
    0.969661341327D+00 0.219593750000D+03-0.796518385959D-01-0.785032699763D-08
   -0.542879755978D-10 0.100000000000D+01 0.210500000000D+04 0.000000000000D+00
    0.340000000000D+01 0.000000000000D+00 0.512227416039D-08 0.630000000000D+02
    0.525618000000D+06 0.400000000000D+01 0.000000000000D+00 0.000000000000D+00
 9 20 05 16 04 00  0.0-0.218115281314D-03-0.727595761418D-11 0.000000000000D+00
    0.200000000000D+02-0.183750000000D+02 0.463733602080D-08 0.169505616128D+01
   -0.109896063805D-05 0.152485421859D-02 0.105351209641D-04 0.515373610878D+04
    0.532800000000D+06-0.242143869400D-07-0.888993244263D+00-0.745058059692D-08
    0.952571293869D+00 0.167718750000D+03 0.181393466184D+01-0.797854662421D-08
   -0.592881838765D-10 0.100000000000D+01 0.210500000000D+04 0.000000000000D+00
    0.240000000000D+01 0.000000000000D+00 0.139698386192D-08 0.200000000000D+02
    0.525618000000D+06 0.400000000000D+01 0.000000000000D+00 0.000000000000D+00
11 20 05 16 01 59 44.0-0.276183243841D-03 0.106865627458D-10 0.000000000000D+00
    0.400000000000D+02 0.472500000000D+02 0.549665752928D-08-0.234457854467D+01
    0.270083546638D-05 0.159532180987D-01 0.652484595776D-05 0.515371895790D+04
    0.525584000000D+06 0.117346644402D-06 0.284889299176D+01 0.240281224251D-06
    0.912907146247D+00 0.224406250000D+03 0.198205509175D+01-0.840606443204D-08
    0.332513850537D-09 0.100000000000D+01 0.210500000000D+04 0.000000000000D+00
    0.240000000000D+01 0.000000000000D+00-0.125728547573D-07 0.400000000000D+02
    0.523338000000D+06 0.400000000000D+01 0.000000000000D+00 0.000000000000D+00
16 20 05 16 03 59 44.0-0.158704817295D-03-0.454747350886D-11 0.000000000000D+00
    0.600000000000D+01-0.434375000000D+01 0.408624163694D-08 0.221525795283D+01
   -0.374391674995D-06 0.115092017222D-01 0.661052763462D-05 0.515376039505D+04
    0.532784000000D+06-0.162050127983D-06 0.130967981843D+01-0.100582838058D-06
    0.978499538959D+00 0.264281250000D+03 0.631304276883D+00-0.786568478020D-08
   -0.297869550320D-09 0.100000000000D+01 0.210500000000D+04 0.000000000000D+00
    0.240000000000D+01 0.000000000000D+00-0.107102096081D-07 0.600000000000D+01
    0.529536000000D+06 0.400000000000D+01 0.000000000000D+00 0.000000000000D+00
11 20 05 16 04 00  0.0-0.276105944067D-03 0.106865627458D-10 0.000000000000D+00
    0.410000000000D+02 0.399375000000D+02 0.561666252797D-08-0.129212733525D+01
    0.220350921154D-05 0.159529484808D-01 0.723637640476D-05 0.515371782875D+04
    0.532800000000D+06-0.284984707832D-06 0.284883046664D+01 0.987201929092D-07
    0.912907868928D+00 0.222187500000D+03 0.198209825515D+01-0.881822445730D-08
    0.373944147703D-09 0.100000000000D+01 0.210500000000D+04 0.000000000000D+00
    0.240000000000D+01 0.000000000000D+00-0.125728547573D-07 0.410000000000D+02
    0.530118000000D+06 0.400000000000D+01 0.000000000000D+00 0.000000000000D+00
 4 20 05 16 04 00  0.0-0.899028964341D-04-0.500222085975D-11 0.000000000000D+00
    0.800000000000D+02-0.643750000000D+01 0.448840124564D-08 0.329972018853D+00
   -0.361353158951D-06 0.743146985769D-03 0.103060156107D-04 0.515369016647D+04
    0.532800000000D+06-0.298023223877D-07-0.841168420258D+00-0.316649675369D-07
    0.959884952387D+00 0.175250000000D+03-0.260005061185D+01-0.796283168390D-08
   -0.592881838765D-10 0.100000000000D+01 0.210500000000D+04 0.000000000000D+00
    0.240000000000D+01 0.000000000000D+00-0.419095158577D-08 0.848000000000D+03
    0.530118000000D+06 0.400000000000D+01 0.000000000000D+00 0.000000000000D+00
30 20 05 16 04 00  0.0-0.221034511924D-03-0.818545231596D-11 0.000000000000D+00
    0.410000000000D+02 0.468125000000D+02 0.509128350097D-08-0.156656972679D+01
    0.232085585594D-05 0.459351623431D-02 0.661797821522D-05 0.515364439964D+04
    0.532800000000D+06-0.353902578354D-07 0.207694413500D+00-0.100582838058D-06
    0.938942964092D+00 0.239906250000D+03-0.287894974235D+01-0.827891627867D-08
    0.102504269714D-09 0.100000000000D+01 0.210500000000D+04 0.000000000000D+00
    0.240000000000D+01 0.000000000000D+00 0.372529029846D-08 0.410000000000D+02
    0.530616000000D+06 0.400000000000D+01 0.000000000000D+00 0.000000000000D+00
27 20 05 16 04 00  0.0-0.294855330139D-03-0.102318153949D-10 0.000000000000D+00
    0.920000000000D+02 0.175625000000D+02 0.393766401951D-08 0.133571620388D+01
    0.860542058945D-06 0.828026316594D-02 0.862218439579D-05 0.515366683769D+04
    0.532800000000D+06-0.782310962677D-07 0.226715270563D+01 0.726431608200D-07
    0.978089145087D+00 0.222656250000D+03 0.558180262563D+00-0.786318467606D-08
   -0.757174396496D-10 0.100000000000D+01 0.210500000000D+04 0.000000000000D+00
    0.240000000000D+01 0.000000000000D+00 0.186264514923D-08 0.920000000000D+02
    0.531756000000D+06 0.400000000000D+01 0.000000000000D+00 0.000000000000D+00
 1 20 05 16 06 00  0.0-0.380557961762D-03-0.636646291241D-11 0.000000000000D+00
    0.800000000000D+01 0.179062500000D+02 0.421981862953D-08 0.271912388825D+00
    0.914558768272D-06 0.984729058109D-02 0.553205609322D-05 0.515362478256D+04
    0.540000000000D+06-0.149011611938D-07-0.296081194191D+01 0.158324837685D-06
    0.980326335967D+00 0.286312500000D+03 0.775685921952D+00-0.811855245601D-08
    0.277868717205D-09 0.100000000000D+01 0.210500000000D+04 0.000000000000D+00
    0.240000000000D+01 0.000000000000D+00 0.512227416039D-08 0.800000000000D+01
    0.532818000000D+06 0.400000000000D+01 0.000000000000D+00 0.000000000000D+00
16 20 05 16 05 59 44.0-0.158737413585D-03-0.454747350886D-11 0.000000000000D+00
    0.530000000000D+02-0.615625000000D+01 0.407409827397D-08-0.301784718257D+01
   -0.372529029846D-06 0.115087389713D-01 0.615231692791D-05 0.515376155281D+04
    0.539984000000D+06-0.484287738800D-07 0.130962354582D+01-0.122934579849D-06
    0.978497727867D+00 0.270250000000D+03 0.631348060558D+00-0.779746765297D-08
   -0.290012080167D-09 0.100000000000D+01 0.210500000000D+04 0.000000000000D+00
    0.240000000000D+01 0.000000000000D+00-0.107102096081D-07 0.530000000000D+02
    0.532818000000D+06 0.400000000000D+01 0.000000000000D+00 0.000000000000D+00
11 20 05 16 06 00  0.0-0.276028644294D-03 0.106865627458D-10 0.000000000000D+00
    0.420000000000D+02 0.302500000000D+02 0.557487507307D-08-0.242026862556D+00
    0.141747295856D-05 0.159526377684D-01 0.697001814842D-05 0.515371607399D+04
    0.540000000000D+06-0.251457095146D-06 0.284876680191D+01-0.147148966789D-06
    0.912910534365D+00 0.222062500000D+03 0.198216061788D+01-0.886644075142D-08
    0.313941648358D-09 0.100000000000D+01 0.210500000000D+04 0.000000000000D+00
    0.240000000000D+01 0.000000000000D+00-0.125728547573D-07 0.420000000000D+02
    0.532818000000D+06 0.400000000000D+01 0.000000000000D+00 0.000000000000D+00
 8 20 05 16 06 00  0.0-0.341571867466D-04-0.136424205266D-11 0.000000000000D+00
    0.650000000000D+02 0.709375000000D+01 0.403516808095D-08 0.254407202229D+01
    0.387430191040D-06 0.534865644295D-02 0.868551433086D-05 0.515367176819D+04
    0.540000000000D+06-0.447034835815D-07 0.225289746572D+01 0.372529029846D-07
    0.969660933173D+00 0.216812500000D+03-0.794829461666D-01-0.783746931920D-08
   -0.535736601294D-10 0.100000000000D+01 0.210500000000D+04 0.000000000000D+00
    0.340000000000D+01 0.000000000000D+00 0.512227416039D-08 0.650000000000D+02
    0.532818000000D+06 0.400000000000D+01 0.000000000000D+00 0.000000000000D+00
